[
  {
    "name": "ONEWEB-0473",
    "noradId": "51653",
    "line1": "1 51653U 22012AH  26169.32283596 -.00005739  00000+0 -16503-1 0  9990",
    "line2": "2 51653  87.8824  36.0504 0001774  79.8969 280.2359 13.10300985209453"
  },
  {
    "name": "ONEWEB-0474",
    "noradId": "51654",
    "line1": "1 51654U 22012AJ  26169.61994459 -.00003575  00000+0 -10290-1 0  9993",
    "line2": "2 51654  87.8834  35.9767 0001653  77.7792 282.3520 13.10320365209481"
  },
  {
    "name": "ONEWEB-0475",
    "noradId": "51655",
    "line1": "1 51655U 22012AK  26169.05764507  .00000049  00000+0  92101-4 0  9996",
    "line2": "2 51655  87.9132   5.6993 0001460  69.2278 290.9010 13.17648702213805"
  },
  {
    "name": "ONEWEB-0490",
    "noradId": "54113",
    "line1": "1 54113U 22138A   26169.34765484  .00000030  00000+0  43368-4 0  9995",
    "line2": "2 54113  87.9178 304.7356 0001723 102.1942 257.9384 13.19724649176981"
  },
  {
    "name": "ONEWEB-0492",
    "noradId": "54114",
    "line1": "1 54114U 22138B   26169.60038022  .00000084  00000+0  17864-3 0  9996",
    "line2": "2 54114  87.9171 304.6865 0001868 107.2248 252.9089 13.19726406177020"
  },
  {
    "name": "ONEWEB-0495",
    "noradId": "54115",
    "line1": "1 54115U 22138C   26169.27499617  .00000064  00000+0  12807-3 0  9991",
    "line2": "2 54115  87.9171 304.7536 0001308 112.2481 247.8791 13.19724988176969"
  },
  {
    "name": "ONEWEB-0497",
    "noradId": "54116",
    "line1": "1 54116U 22138D   26169.28763299  .00000016  00000+0  75284-5 0  9990",
    "line2": "2 54116  87.9178 304.7432 0001797  99.4959 260.6377 13.19724967176959"
  },
  {
    "name": "ONEWEB-0499",
    "noradId": "54117",
    "line1": "1 54117U 22138E   26169.65012823  .00000113  00000+0  24935-3 0  9995",
    "line2": "2 54117  87.9172 304.6803 0001617  98.7345 261.3971 13.19727181177014"
  },
  {
    "name": "ONEWEB-0500",
    "noradId": "54118",
    "line1": "1 54118U 22138F   26169.34923198  .00000030  00000+0  43815-4 0  9995",
    "line2": "2 54118  87.9178 304.7346 0001957 100.5735 259.5618 13.19724156176987"
  },
  {
    "name": "ONEWEB-0501",
    "noradId": "54119",
    "line1": "1 54119U 22138G   26169.60669282  .00000072  00000+0  14724-3 0  9998",
    "line2": "2 54119  87.9179 304.6829 0001473 105.4594 254.6702 13.19724001176994"
  },
  {
    "name": "ONEWEB-0502",
    "noradId": "54120",
    "line1": "1 54120U 22138H   26169.28920476  .00000027  00000+0  35493-4 0  9996",
    "line2": "2 54120  87.9179 304.7348 0001613  95.3819 264.7498 13.19724597176978"
  },
  {
    "name": "ONEWEB-0503",
    "noradId": "54121",
    "line1": "1 54121U 22138J   26169.27815553  .00000006  00000+0 -17975-4 0  9998",
    "line2": "2 54121  87.9181 304.7431 0001906  90.8966 269.2385 13.19724731176967"
  },
  {
    "name": "ONEWEB-0504",
    "noradId": "54122",
    "line1": "1 54122U 22138K   26168.88643879  .00000041  00000+0  70241-4 0  9998",
    "line2": "2 54122  87.9179 304.8261 0001633  96.0610 264.0709 13.19725042176923"
  },
  {
    "name": "ONEWEB-0505",
    "noradId": "54123",
    "line1": "1 54123U 22138L   26169.64144679  .00000203  00000+0  47350-3 0  9992",
    "line2": "2 54123  87.9180 304.6768 0001390 100.6066 259.5223 13.19726992177008"
  },
  {
    "name": "ONEWEB-0506",
    "noradId": "54124",
    "line1": "1 54124U 22138M   26169.61616473  .00000127  00000+0  28447-3 0  9997",
    "line2": "2 54124  87.9180 304.6787 0001557 101.6103 258.5204 13.19724855176999"
  },
  {
    "name": "ONEWEB-0507",
    "noradId": "54125",
    "line1": "1 54125U 22138N   26169.63670964  .00000089  00000+0  19017-3 0  9995",
    "line2": "2 54125  87.9172 304.6868 0001697 102.4766 257.6557 13.19724901177040"
  },
  {
    "name": "ONEWEB-0508",
    "noradId": "54126",
    "line1": "1 54126U 22138P   26169.63354231  .00000112  00000+0  24835-3 0  9993",
    "line2": "2 54126  87.9172 304.6869 0001562 109.9471 250.1830 13.19724785177028"
  },
  {
    "name": "ONEWEB-0509",
    "noradId": "54127",
    "line1": "1 54127U 22138Q   26169.60826745  .00000033  00000+0  51262-4 0  9992",
    "line2": "2 54127  87.9182 304.6815 0001726 100.8983 259.2344 13.19725779176990"
  },
  {
    "name": "ONEWEB-0510",
    "noradId": "54128",
    "line1": "1 54128U 22138R   26169.26837072  .00000028  00000+0  36016-4 0  9994",
    "line2": "2 54128  87.9196 274.2202 0002374  94.4877 265.6528 13.20772550179425"
  },
  {
    "name": "ONEWEB-0511",
    "noradId": "54129",
    "line1": "1 54129U 22138S   26169.60511479  .00000077  00000+0  15953-3 0  9993",
    "line2": "2 54129  87.9177 304.6847 0001741  90.8882 269.2451 13.19726954177025"
  },
  {
    "name": "ONEWEB-0512",
    "noradId": "54130",
    "line1": "1 54130U 22138T   26169.29394574  .00000002  00000+0 -27495-4 0  9999",
    "line2": "2 54130  87.9170 304.7516 0001513  96.2834 263.8471 13.19725110176954"
  },
  {
    "name": "ONEWEB-0513",
    "noradId": "54131",
    "line1": "1 54131U 22138U   26169.60224856  .00000026  00000+0  33090-4 0  9993",
    "line2": "2 54131  87.9178 304.6343 0001073  77.7841 282.3412 13.20269320176907"
  },
  {
    "name": "ONEWEB-0514",
    "noradId": "54132",
    "line1": "1 54132U 22138V   26169.30974273  .00000067  00000+0  13496-3 0  9998",
    "line2": "2 54132  87.9180 304.7423 0001991  96.7945 263.3414 13.19725045176973"
  },
  {
    "name": "ONEWEB-0515",
    "noradId": "54133",
    "line1": "1 54133U 22138W   26169.55792841  .00000130  00000+0  28790-3 0  9999",
    "line2": "2 54133  87.9201 274.1572 0002783 109.0674 251.0761 13.20770842179485"
  },
  {
    "name": "ONEWEB-0516",
    "noradId": "54134",
    "line1": "1 54134U 22138X   26168.90537987 -.00000004  00000+0 -41696-4 0  9999",
    "line2": "2 54134  87.9169 304.8292 0001813 102.8226 257.3110 13.19725318176925"
  },
  {
    "name": "ONEWEB-0517",
    "noradId": "54135",
    "line1": "1 54135U 22138Y   26169.64302046  .00000127  00000+0  28468-3 0  9993",
    "line2": "2 54135  87.9179 304.6748 0001931  89.6823 270.4531 13.19725031177024"
  },
  {
    "name": "ONEWEB-0518",
    "noradId": "54136",
    "line1": "1 54136U 22138Z   26169.28290085  .00000041  00000+0  70216-4 0  9997",
    "line2": "2 54136  87.9170 304.7559 0001867 104.9550 255.1789 13.19728164176971"
  },
  {
    "name": "ONEWEB-0519",
    "noradId": "54137",
    "line1": "1 54137U 22138AA  26169.61143410  .00000097  00000+0  20883-3 0  9999",
    "line2": "2 54137  87.9184 304.6820 0001906  92.2871 267.8480 13.19727554177023"
  },
  {
    "name": "ONEWEB-0520",
    "noradId": "54138",
    "line1": "1 54138U 22138AB  26169.64618591  .00000062  00000+0  12365-3 0  9998",
    "line2": "2 54138  87.9180 304.6752 0001635 102.9260 257.2056 13.19724962177015"
  },
  {
    "name": "ONEWEB-0521",
    "noradId": "54139",
    "line1": "1 54139U 22138AC  26169.60353153  .00000107  00000+0  23553-3 0  9996",
    "line2": "2 54139  87.9180 304.6721 0001974  93.1315 267.0044 13.19725616176955"
  }
]